{
  "version": 0.6,
  "generator": "Overpass API 0.7.62.8 e802775f",
  "osm3s": {
    "timestamp_osm_base": "2025-11-11T00:13:00Z",
    "copyright": "The data included in this document is from www.openstreetmap.org. The data is made available under ODbL."
  },
  "elements": [
    {
      "type": "node",
      "id": 178065905,
      "lat": 37.9371627,
      "lon": -107.8207559,
      "tags": {
        "aerialway": "station"
      }
    },
    {
      "type": "node",
      "id": 178092087,
      "lat": 37.9212559,
      "lon": -107.8392389,
      "tags": {
        "aerialway": "station"
      }
    },
    {
      "type": "node",
      "id": 178097227,
      "lat": 37.9360337,
      "lon": -107.813963,
      "tags": {
        "aerialway": "station",
        "public_transport": "station"
      }
    },
    {
      "type": "node",
      "id": 178097236,
      "lat": 37.9313189,
      "lon": -107.8330106,
      "tags": {
        "aerialway": "station",
        "name": "San Sophia Station",
        "public_transport": "station"
      }
    },
    {
      "type": "node",
      "id": 178097243,
      "lat": 37.9366124,
      "lon": -107.8448842,
      "tags": {
        "aerialway": "station",
        "public_transport": "station"
      }
    },
    {
      "type": "node",
      "id": 1130123110,
      "lat": 37.9239303,
      "lon": -107.8306629,
      "tags": {
        "aerialway": "station",
        "public_transport": "station"
      }
    },
    {
      "type": "node",
      "id": 1130123114,
      "lat": 37.9361723,
      "lon": -107.8455107,
      "tags": {
        "aerialway": "station",
        "public_transport": "station"
      }
    },
    {
      "type": "node",
      "id": 1130135785,
      "lat": 37.9105575,
      "lon": -107.822077,
      "tags": {
        "aerialway": "station",
        "public_transport": "station"
      }
    },
    {
      "type": "node",
      "id": 1130169377,
      "lat": 37.910167,
      "lon": -107.8296221,
      "tags": {
        "aerialway": "station"
      }
    },
    {
      "type": "node",
      "id": 1130169386,
      "lat": 37.9148716,
      "lon": -107.8299958,
      "tags": {
        "aerialway": "station"
      }
    },
    {
      "type": "node",
      "id": 1130187476,
      "lat": 37.9047986,
      "lon": -107.8351481,
      "tags": {
        "aerialway": "station"
      }
    },
    {
      "type": "node",
      "id": 1130201253,
      "lat": 37.9028588,
      "lon": -107.8192505,
      "tags": {
        "aerialway": "station"
      }
    },
    {
      "type": "node",
      "id": 1132619757,
      "lat": 37.9054568,
      "lon": -107.8361647,
      "tags": {
        "aerialway": "station"
      }
    },
    {
      "type": "node",
      "id": 1397541404,
      "lat": 37.9195169,
      "lon": -107.7676757,
      "tags": {
        "information": "yes",
        "name": "One way above this point",
        "tourism": "information"
      }
    },
    {
      "type": "node",
      "id": 1397542173,
      "lat": 37.9225127,
      "lon": -107.7667821,
      "tags": {
        "amenity": "parking",
        "parking": "surface"
      }
    },
    {
      "type": "node",
      "id": 2107244631,
      "lat": 37.904029,
      "lon": -107.844175,
      "tags": {
        "aerialway": "station",
        "public_transport": "station"
      }
    },
    {
      "type": "node",
      "id": 2107244645,
      "lat": 37.9102923,
      "lon": -107.847523,
      "tags": {
        "aerialway": "station",
        "public_transport": "station"
      }
    },
    {
      "type": "node",
      "id": 2107244855,
      "lat": 37.9389994,
      "lon": -107.8565066,
      "tags": {
        "aerialway": "station",
        "public_transport": "station"
      }
    },
    {
      "type": "node",
      "id": 2389934528,
      "lat": 37.9487641,
      "lon": -107.8816762,
      "tags": {
        "source": "Bing",
        "tourism": "viewpoint"
      }
    },
    {
      "type": "node",
      "id": 2396509388,
      "lat": 37.9197531,
      "lon": -107.8831229,
      "tags": {
        "source": "Bing",
        "tourism": "viewpoint"
      }
    },
    {
      "type": "node",
      "id": 2455846504,
      "lat": 37.9368296,
      "lon": -107.810647,
      "tags": {
        "addr:city": "Telluride",
        "addr:housenumber": "110",
        "addr:postcode": "81435",
        "addr:street": "East Colorado Avenue",
        "amenity": "restaurant",
        "cuisine": "pizza",
        "name": "Brown Dog Pizza",
        "phone": "+1-970-728-8046",
        "website": "https://browndogpizza.net/"
      }
    },
    {
      "type": "node",
      "id": 3177990965,
      "lat": 37.9348957,
      "lon": -107.8061027,
      "tags": {
        "tourism": "information"
      }
    },
    {
      "type": "node",
      "id": 4239808965,
      "lat": 37.9514715,
      "lon": -107.8775965,
      "tags": {
        "description": "Great viewpoint for sunset photos.",
        "tourism": "viewpoint"
      }
    },
    {
      "type": "node",
      "id": 4423823603,
      "lat": 37.9369212,
      "lon": -107.8122552,
      "tags": {
        "addr:city": "Telluride",
        "addr:housenumber": "127",
        "addr:postcode": "81435",
        "addr:state": "CO",
        "addr:street": "South Fir Street",
        "amenity": "restaurant",
        "name": "Baked in Telluride"
      }
    },
    {
      "type": "node",
      "id": 4423823605,
      "lat": 37.9381747,
      "lon": -107.8117363,
      "tags": {
        "addr:city": "Telluride",
        "addr:housenumber": "131",
        "addr:postcode": "81435",
        "addr:state": "CO",
        "addr:street": "North Fir Street",
        "amenity": "restaurant",
        "cuisine": "american",
        "name": "Cornerhouse Grille",
        "opening_hours": "Mo -Su 11:30-24:00",
        "takeaway": "yes"
      }
    },
    {
      "type": "node",
      "id": 4423878954,
      "lat": 37.9360582,
      "lon": -107.813873,
      "tags": {
        "aerialway": "station",
        "aerialway:access": "both",
        "aerialway:summer:access": "both",
        "name": "Telluride Gondola Station",
        "opening_hours": "07:00-24:00",
        "public_transport": "station"
      }
    },
    {
      "type": "node",
      "id": 4592107434,
      "lat": 37.936622,
      "lon": -107.8146166,
      "tags": {
        "amenity": "parking",
        "capacity": "20",
        "name": "gondola parking",
        "parking": "surface"
      }
    },
    {
      "type": "node",
      "id": 5143689323,
      "lat": 37.9295894,
      "lon": -107.8322897,
      "tags": {
        "aerialway": "station",
        "public_transport": "station"
      }
    },
    {
      "type": "node",
      "id": 5146559325,
      "lat": 37.9107295,
      "lon": -107.848516,
      "tags": {
        "aerialway": "station",
        "public_transport": "station"
      }
    },
    {
      "type": "node",
      "id": 6096753644,
      "lat": 37.9500629,
      "lon": -107.851063,
      "tags": {
        "amenity": "parking_space",
        "capacity": "15",
        "description": "Private Homeowners Parking Lot"
      }
    },
    {
      "type": "node",
      "id": 6584439041,
      "lat": 37.9357298,
      "lon": -107.8134178,
      "tags": {
        "addr:city": "Telluride",
        "addr:postcode": "81435",
        "amenity": "restaurant",
        "name": "Oak Street"
      }
    },
    {
      "type": "node",
      "id": 6739939945,
      "lat": 37.922087,
      "lon": -107.7657951,
      "tags": {
        "amenity": "parking",
        "parking": "surface"
      }
    },
    {
      "type": "node",
      "id": 7630731885,
      "lat": 37.9393792,
      "lon": -107.8192133,
      "tags": {
        "amenity": "restaurant",
        "cuisine": "american;tapas",
        "name": "The Tunnel"
      }
    },
    {
      "type": "node",
      "id": 7818093645,
      "lat": 37.9371703,
      "lon": -107.8102612,
      "tags": {
        "amenity": "restaurant",
        "name": "La cocina de Luz"
      }
    },
    {
      "type": "node",
      "id": 8032954491,
      "lat": 37.92993,
      "lon": -107.774232,
      "tags": {
        "amenity": "parking",
        "parking": "surface"
      }
    },
    {
      "type": "node",
      "id": 8669658818,
      "lat": 37.9211595,
      "lon": -107.756,
      "tags": {
        "name": "One way below this point",
        "tourism": "information"
      }
    },
    {
      "type": "node",
      "id": 8796466392,
      "lat": 37.9026075,
      "lon": -107.8237664,
      "tags": {
        "aerialway": "station",
        "public_transport": "station"
      }
    },
    {
      "type": "node",
      "id": 8796467593,
      "lat": 37.9144204,
      "lon": -107.8219651,
      "tags": {
        "aerialway": "station",
        "public_transport": "station"
      }
    },
    {
      "type": "node",
      "id": 11108326698,
      "lat": 37.9369946,
      "lon": -107.8096152,
      "tags": {
        "addr:city": "Telluride",
        "addr:housenumber": "201",
        "addr:postcode": "81435",
        "addr:state": "CO",
        "addr:street": "East Colorado Avenue",
        "amenity": "cafe",
        "cuisine": "sandwich",
        "internet_access": "no",
        "name": "The Butcher & The Baker",
        "opening_hours": "Mo-Sa 07:00-20:00; Su 08:00-14:00",
        "outdoor_seating": "yes",
        "phone": "+1 970-728-2899",
        "website": "https://butcherandbakercafe.com"
      }
    },
    {
      "type": "node",
      "id": 11108357722,
      "lat": 37.9372571,
      "lon": -107.8109119,
      "tags": {
        "amenity": "bicycle_parking",
        "bicycle_parking": "wall_loops",
        "covered": "no"
      }
    },
    {
      "type": "node",
      "id": 11108365169,
      "lat": 37.9376677,
      "lon": -107.8125063,
      "tags": {
        "amenity": "bicycle_parking",
        "bicycle_parking": "wall_loops",
        "covered": "no"
      }
    },
    {
      "type": "node",
      "id": 11108387157,
      "lat": 37.9363057,
      "lon": -107.8112938,
      "tags": {
        "access": "yes",
        "amenity": "bicycle_parking"
      }
    },
    {
      "type": "node",
      "id": 11983446904,
      "lat": 37.9374631,
      "lon": -107.812515,
      "tags": {
        "amenity": "restaurant",
        "cuisine": "mexican",
        "name": "Esperanza's"
      }
    },
    {
      "type": "node",
      "id": 11983446914,
      "lat": 37.9372773,
      "lon": -107.8120023,
      "tags": {
        "amenity": "restaurant",
        "name": "Alpinist & the Goat"
      }
    },
    {
      "type": "node",
      "id": 11983446917,
      "lat": 37.9373675,
      "lon": -107.8110727,
      "tags": {
        "amenity": "restaurant",
        "cuisine": "sushi",
        "name": "Pescado"
      }
    },
    {
      "type": "node",
      "id": 11983446931,
      "lat": 37.9375033,
      "lon": -107.8126728,
      "tags": {
        "information": "office",
        "name": "Visitors Center",
        "tourism": "information"
      }
    },
    {
      "type": "node",
      "id": 11983446945,
      "lat": 37.9370631,
      "lon": -107.8098763,
      "tags": {
        "amenity": "restaurant",
        "bar": "yes",
        "name": "Wood Ear"
      }
    },
    {
      "type": "node",
      "id": 11983446954,
      "lat": 37.9373317,
      "lon": -107.8109011,
      "tags": {
        "amenity": "restaurant",
        "bar": "yes",
        "name": "Florida Saloon"
      }
    },
    {
      "type": "node",
      "id": 12069051151,
      "lat": 37.9365426,
      "lon": -107.8456994,
      "tags": {
        "information": "map",
        "tourism": "information"
      }
    },
    {
      "type": "node",
      "id": 12069073453,
      "lat": 37.9365932,
      "lon": -107.845732,
      "tags": {
        "amenity": "bicycle_parking",
        "bicycle_parking": "wall_loops",
        "capacity": "36",
        "covered": "no"
      }
    },
    {
      "type": "node",
      "id": 12069078762,
      "lat": 37.936389,
      "lon": -107.8457982,
      "tags": {
        "information": "map",
        "tourism": "information"
      }
    },
    {
      "type": "node",
      "id": 12069085797,
      "lat": 37.9367669,
      "lon": -107.8465689,
      "tags": {
        "amenity": "bicycle_parking",
        "bicycle_parking": "stands",
        "capacity": "7",
        "covered": "no"
      }
    },
    {
      "type": "node",
      "id": 12069095069,
      "lat": 37.9358182,
      "lon": -107.8471408,
      "tags": {
        "information": "map",
        "tourism": "information"
      }
    },
    {
      "type": "node",
      "id": 12069095185,
      "lat": 37.9368567,
      "lon": -107.8463673,
      "tags": {
        "information": "map",
        "tourism": "information"
      }
    },
    {
      "type": "node",
      "id": 12069116417,
      "lat": 37.9382003,
      "lon": -107.846298,
      "tags": {
        "information": "map",
        "tourism": "information"
      }
    },
    {
      "type": "node",
      "id": 12069120252,
      "lat": 37.9300963,
      "lon": -107.8320932,
      "tags": {
        "board_type": "geology",
        "information": "board",
        "tourism": "information"
      }
    },
    {
      "type": "node",
      "id": 12069126383,
      "lat": 37.9371448,
      "lon": -107.8460721,
      "tags": {
        "amenity": "bicycle_parking",
        "bicycle_parking": "stands",
        "capacity": "5",
        "covered": "no"
      }
    },
    {
      "type": "node",
      "id": 12069137164,
      "lat": 37.9366676,
      "lon": -107.8471775,
      "tags": {
        "amenity": "bicycle_parking",
        "bicycle_parking": "stands",
        "capacity": "7",
        "covered": "no"
      }
    },
    {
      "type": "node",
      "id": 12069173155,
      "lat": 37.931092,
      "lon": -107.8327881,
      "tags": {
        "amenity": "toilets",
        "wheelchair": "yes"
      }
    },
    {
      "type": "node",
      "id": 12181171224,
      "lat": 37.9293596,
      "lon": -107.8326455,
      "tags": {
        "information": "guidepost",
        "operator": "Telluride",
        "ski": "yes",
        "tourism": "information"
      }
    },
    {
      "type": "node",
      "id": 12181171272,
      "lat": 37.9340367,
      "lon": -107.8117786,
      "tags": {
        "board_type": "welcome_sign",
        "information": "board",
        "tourism": "information"
      }
    },
    {
      "type": "node",
      "id": 12181171289,
      "lat": 37.934188,
      "lon": -107.8048211,
      "tags": {
        "amenity": "toilets"
      }
    },
    {
      "type": "node",
      "id": 12388989050,
      "lat": 37.9367125,
      "lon": -107.8464422,
      "tags": {
        "amenity": "cafe",
        "name": "Telluride Coffee Company"
      }
    },
    {
      "type": "node",
      "id": 12551293404,
      "lat": 37.9368683,
      "lon": -107.8126236,
      "tags": {
        "addr:city": "Telluride",
        "addr:housenumber": "219",
        "addr:postcode": "81435",
        "addr:state": "CO",
        "addr:street": "West Pacific Avenue",
        "amenity": "restaurant",
        "cuisine": "french",
        "name": "Petite Maison",
        "phone": "+1-970-728-7020",
        "source": "esri/USA_NAD_Addresses",
        "website": "https://petitemaisontelluride.com/"
      }
    },
    {
      "type": "node",
      "id": 13163020201,
      "lat": 37.9359524,
      "lon": -107.8138777,
      "tags": {
        "amenity": "toilets"
      }
    }
  ]
}